{
  "type": "FeatureCollection",
  "features": [
    {
      "type": "Feature",
      "properties": {
        "norad_id": 31542,
        "name": "FENGYUN 1C DEB",
        "group": "fengyun-1c-debris",
        "lat": -14.37336470592504,
        "lon": -135.322397114997,
        "alt_km": 786.1868279690771,
        "timestamp": "2025-12-18T23:35:49.343610+00:00",
        "meta_object_name": "FENGYUN 1C DEB",
        "meta_object_id": "1999-025BYH",
        "meta_epoch": "2025-12-17T14:37:07.400352",
        "meta_mean_motion": 14.2282267,
        "meta_eccentricity": 0.0047729,
        "meta_inclination": 98.7317,
        "meta_ra_of_asc_node": 45.5728,
        "meta_arg_of_pericenter": 193.2055,
        "meta_mean_anomaly": 166.7877,
        "meta_ephemeris_type": 0,
        "meta_classification_type": "U",
        "meta_norad_cat_id": 31542,
        "meta_element_set_no": 999,
        "meta_rev_at_epoch": 96009,
        "meta_bstar": 0.00099429608,
        "meta_mean_motion_dot": 2.214e-05,
        "meta_mean_motion_ddot": 0,
        "tle_line1": "1 31542U 99025BYH 25351.60911343  .00002214  00000+0  99430-3 0  9999",
        "tle_line2": "2 31542  98.7317  45.5728 0047729 193.2055 166.7877 14.22822670960097"
      },
      "geometry": {
        "type": "Point",
        "coordinates": [
          -135.322397114997,
          -14.37336470592504
        ]
      }
    },
    {
      "type": "Feature",
      "properties": {
        "norad_id": 31544,
        "name": "FENGYUN 1C DEB",
        "group": "fengyun-1c-debris",
        "lat": 80.0428462289075,
        "lon": -73.53863715078127,
        "alt_km": 858.261179942916,
        "timestamp": "2025-12-18T23:35:49.343621+00:00",
        "meta_object_name": "FENGYUN 1C DEB",
        "meta_object_id": "1999-025BYK",
        "meta_epoch": "2025-12-18T09:33:58.855104",
        "meta_mean_motion": 14.14349769,
        "meta_eccentricity": 0.00320217,
        "meta_inclination": 98.8286,
        "meta_ra_of_asc_node": 43.5966,
        "meta_arg_of_pericenter": 252.5077,
        "meta_mean_anomaly": 107.2595,
        "meta_ephemeris_type": 0,
        "meta_classification_type": "U",
        "meta_norad_cat_id": 31544,
        "meta_element_set_no": 999,
        "meta_rev_at_epoch": 95837,
        "meta_bstar": 0.00061169434,
        "meta_mean_motion_dot": 1.131e-05,
        "meta_mean_motion_ddot": 0,
        "tle_line1": "1 31544U 99025BYK 25352.39859786  .00001131  00000+0  61169-3 0  9995",
        "tle_line2": "2 31544  98.8286  43.5966 0032021 252.5077 107.2595 14.14349769958378"
      },
      "geometry": {
        "type": "Point",
        "coordinates": [
          -73.53863715078127,
          80.0428462289075
        ]
      }
    },
    {
      "type": "Feature",
      "properties": {
        "norad_id": 31546,
        "name": "FENGYUN 1C DEB",
        "group": "fengyun-1c-debris",
        "lat": -53.29927334475176,
        "lon": -129.20897660912115,
        "alt_km": 898.8888753901629,
        "timestamp": "2025-12-18T23:35:49.343631+00:00",
        "meta_object_name": "FENGYUN 1C DEB",
        "meta_object_id": "1999-025BYM",
        "meta_epoch": "2025-12-18T03:48:53.349984",
        "meta_mean_motion": 14.13165118,
        "meta_eccentricity": 0.01460425,
        "meta_inclination": 98.2442,
        "meta_ra_of_asc_node": 61.2469,
        "meta_arg_of_pericenter": 121.3915,
        "meta_mean_anomaly": 240.1639,
        "meta_ephemeris_type": 0,
        "meta_classification_type": "U",
        "meta_norad_cat_id": 31546,
        "meta_element_set_no": 999,
        "meta_rev_at_epoch": 94865,
        "meta_bstar": 0.0011596189,
        "meta_mean_motion_dot": 2.363e-05,
        "meta_mean_motion_ddot": 0,
        "tle_line1": "1 31546U 99025BYM 25352.15895081  .00002363  00000+0  11596-2 0  9995",
        "tle_line2": "2 31546  98.2442  61.2469 0146042 121.3915 240.1639 14.13165118948655"
      },
      "geometry": {
        "type": "Point",
        "coordinates": [
          -129.20897660912115,
          -53.29927334475176
        ]
      }
    },
    {
      "type": "Feature",
      "properties": {
        "norad_id": 31547,
        "name": "FENGYUN 1C DEB",
        "group": "fengyun-1c-debris",
        "lat": -47.34207555422275,
        "lon": -153.05040412878128,
        "alt_km": 782.9416752019279,
        "timestamp": "2025-12-18T23:35:49.343642+00:00",
        "meta_object_name": "FENGYUN 1C DEB",
        "meta_object_id": "1999-025BYN",
        "meta_epoch": "2025-12-09T09:02:48.494688",
        "meta_mean_motion": 14.23103077,
        "meta_eccentricity": 0.00537834,
        "meta_inclination": 99.0872,
        "meta_ra_of_asc_node": 27.0415,
        "meta_arg_of_pericenter": 262.539,
        "meta_mean_anomaly": 96.9674,
        "meta_ephemeris_type": 0,
        "meta_classification_type": "U",
        "meta_norad_cat_id": 31547,
        "meta_element_set_no": 999,
        "meta_rev_at_epoch": 63969,
        "meta_bstar": 0.0021137662,
        "meta_mean_motion_dot": 4.797e-05,
        "meta_mean_motion_ddot": 0,
        "tle_line1": "1 31547U 99025BYN 25343.37695017  .00004797  00000+0  21138-2 0  9993",
        "tle_line2": "2 31547  99.0872  27.0415 0053783 262.5390  96.9674 14.23103077639691"
      },
      "geometry": {
        "type": "Point",
        "coordinates": [
          -153.05040412878128,
          -47.34207555422275
        ]
      }
    },
    {
      "type": "Feature",
      "properties": {
        "norad_id": 31550,
        "name": "FENGYUN 1C DEB",
        "group": "fengyun-1c-debris",
        "lat": 66.1663357461271,
        "lon": -27.056732405242855,
        "alt_km": 886.0119365812961,
        "timestamp": "2025-12-18T23:35:49.343652+00:00",
        "meta_object_name": "FENGYUN 1C DEB",
        "meta_object_id": "1999-025BYR",
        "meta_epoch": "2025-12-18T06:36:07.648992",
        "meta_mean_motion": 14.402402,
        "meta_eccentricity": 0.01900394,
        "meta_inclination": 98.3109,
        "meta_ra_of_asc_node": 351.5783,
        "meta_arg_of_pericenter": 256.0402,
        "meta_mean_anomaly": 101.959,
        "meta_ephemeris_type": 0,
        "meta_classification_type": "U",
        "meta_norad_cat_id": 31550,
        "meta_element_set_no": 999,
        "meta_rev_at_epoch": 65534,
        "meta_bstar": 0.00057475877,
        "meta_mean_motion_dot": 2.2e-05,
        "meta_mean_motion_ddot": 0,
        "tle_line1": "1 31550U 99025BYR 25352.27508853  .00002200  00000+0  57476-3 0  9999",
        "tle_line2": "2 31550  98.3109 351.5783 0190039 256.0402 101.9590 14.40240200655344"
      },
      "geometry": {
        "type": "Point",
        "coordinates": [
          -27.056732405242855,
          66.1663357461271
        ]
      }
    },
    {
      "type": "Feature",
      "properties": {
        "norad_id": 31552,
        "name": "FENGYUN 1C DEB",
        "group": "fengyun-1c-debris",
        "lat": 16.147445576680017,
        "lon": -62.543954673992424,
        "alt_km": 797.6936718509414,
        "timestamp": "2025-12-18T23:35:49.343663+00:00",
        "meta_object_name": "FENGYUN 1C DEB",
        "meta_object_id": "1999-025BYT",
        "meta_epoch": "2025-12-17T06:58:54.985152",
        "meta_mean_motion": 14.45772457,
        "meta_eccentricity": 0.00853627,
        "meta_inclination": 98.6198,
        "meta_ra_of_asc_node": 113.2198,
        "meta_arg_of_pericenter": 6.8749,
        "meta_mean_anomaly": 353.3591,
        "meta_ephemeris_type": 0,
        "meta_classification_type": "U",
        "meta_norad_cat_id": 31552,
        "meta_element_set_no": 999,
        "meta_rev_at_epoch": 95942,
        "meta_bstar": 0.0020741958,
        "meta_mean_motion_dot": 7.651e-05,
        "meta_mean_motion_ddot": 0,
        "tle_line1": "1 31552U 99025BYT 25351.29091418  .00007651  00000+0  20742-2 0  9996",
        "tle_line2": "2 31552  98.6198 113.2198 0085362   6.8749 353.3591 14.45772457959426"
      },
      "geometry": {
        "type": "Point",
        "coordinates": [
          -62.543954673992424,
          16.147445576680017
        ]
      }
    },
    {
      "type": "Feature",
      "properties": {
        "norad_id": 31553,
        "name": "FENGYUN 1C DEB",
        "group": "fengyun-1c-debris",
        "lat": 78.48649198789413,
        "lon": -3.166849015800588,
        "alt_km": 762.2884516021213,
        "timestamp": "2025-12-18T23:35:49.343698+00:00",
        "meta_object_name": "FENGYUN 1C DEB",
        "meta_object_id": "1999-025BYU",
        "meta_epoch": "2025-12-16T02:30:54.789120",
        "meta_mean_motion": 14.30186914,
        "meta_eccentricity": 0.0029858,
        "meta_inclination": 99.0042,
        "meta_ra_of_asc_node": 44.9721,
        "meta_arg_of_pericenter": 92.6824,
        "meta_mean_anomaly": 298.4165,
        "meta_ephemeris_type": 0,
        "meta_classification_type": "U",
        "meta_norad_cat_id": 31553,
        "meta_element_set_no": 999,
        "meta_rev_at_epoch": 95958,
        "meta_bstar": 0.0012186764,
        "meta_mean_motion_dot": 3.125e-05,
        "meta_mean_motion_ddot": 0,
        "tle_line1": "1 31553U 99025BYU 25350.10480080  .00003125  00000+0  12187-2 0  9999",
        "tle_line2": "2 31553  99.0042  44.9721 0029858  92.6824 298.4165 14.30186914959581"
      },
      "geometry": {
        "type": "Point",
        "coordinates": [
          -3.166849015800588,
          78.48649198789413
        ]
      }
    }
  ]
}